CCSDS_OMM_VERS = 2.0
CREATION_DATE  = 
ORIGINATOR     = 

OBJECT_NAME    = STARLINK-36584
OBJECT_ID      = 2026-014R
CENTER_NAME    = EARTH
REF_FRAME      = TEME
TIME_SYSTEM    = UTC
MEAN_ELEMENT_THEORY = SGP/SGP4

EPOCH          = 2026-02-20T03:23:40.091136
MEAN_MOTION    = 15.75283708
ECCENTRICITY   = .00020013
INCLINATION    = 97.2833
RA_OF_ASC_NODE = 295.2497
ARG_OF_PERICENTER = 70.3482
MEAN_ANOMALY   = 289.7999

EPHEMERIS_TYPE = 0
CLASSIFICATION_TYPE = U
NORAD_CAT_ID   = 67547
ELEMENT_SET_NO = 999
REV_AT_EPOCH   = 581
BSTAR          = .15233219E-2
MEAN_MOTION_DOT = .234381E-2
MEAN_MOTION_DDOT = 0

CCSDS_OMM_VERS = 2.0
CREATION_DATE  = 
ORIGINATOR     = 

OBJECT_NAME    = STARLINK-36586
OBJECT_ID      = 2026-014S
CENTER_NAME    = EARTH
REF_FRAME      = TEME
TIME_SYSTEM    = UTC
MEAN_ELEMENT_THEORY = SGP/SGP4

EPOCH          = 2026-02-20T04:29:47.282784
MEAN_MOTION    = 15.81065415
ECCENTRICITY   = .00022326
INCLINATION    = 97.2822
RA_OF_ASC_NODE = 295.3405
ARG_OF_PERICENTER = 55.1703
MEAN_ANOMALY   = 304.9775

EPHEMERIS_TYPE = 0
CLASSIFICATION_TYPE = U
NORAD_CAT_ID   = 67548
ELEMENT_SET_NO = 999
REV_AT_EPOCH   = 582
BSTAR          = .24278133E-2
MEAN_MOTION_DOT = .498079E-2
MEAN_MOTION_DDOT = 0

CCSDS_OMM_VERS = 2.0
CREATION_DATE  = 
ORIGINATOR     = 

OBJECT_NAME    = STARLINK-36564
OBJECT_ID      = 2026-014T
CENTER_NAME    = EARTH
REF_FRAME      = TEME
TIME_SYSTEM    = UTC
MEAN_ELEMENT_THEORY = SGP/SGP4

EPOCH          = 2026-02-20T05:32:13.922880
MEAN_MOTION    = 15.75195250
ECCENTRICITY   = .00021011
INCLINATION    = 97.2832
RA_OF_ASC_NODE = 295.2831
ARG_OF_PERICENTER = 126.5722
MEAN_ANOMALY   = 233.5737

EPHEMERIS_TYPE = 0
CLASSIFICATION_TYPE = U
NORAD_CAT_ID   = 67549
ELEMENT_SET_NO = 999
REV_AT_EPOCH   = 576
BSTAR          = .30291506E-3
MEAN_MOTION_DOT = .45305E-3
MEAN_MOTION_DDOT = 0

CCSDS_OMM_VERS = 2.0
CREATION_DATE  = 
ORIGINATOR     = 

OBJECT_NAME    = STARLINK-36563
OBJECT_ID      = 2026-014U
CENTER_NAME    = EARTH
REF_FRAME      = TEME
TIME_SYSTEM    = UTC
MEAN_ELEMENT_THEORY = SGP/SGP4

EPOCH          = 2026-02-20T05:26:08.493216
MEAN_MOTION    = 15.75161836
ECCENTRICITY   = .00019157
INCLINATION    = 97.2845
RA_OF_ASC_NODE = 295.2856
ARG_OF_PERICENTER = 62.5955
MEAN_ANOMALY   = 297.5505

EPHEMERIS_TYPE = 0
CLASSIFICATION_TYPE = U
NORAD_CAT_ID   = 67550
ELEMENT_SET_NO = 999
REV_AT_EPOCH   = 582
BSTAR          = .15006748E-2
MEAN_MOTION_DOT = .22955E-2
MEAN_MOTION_DDOT = 0

CCSDS_OMM_VERS = 2.0
CREATION_DATE  = 
ORIGINATOR     = 

OBJECT_NAME    = STARLINK-36566
OBJECT_ID      = 2026-014V
CENTER_NAME    = EARTH
REF_FRAME      = TEME
TIME_SYSTEM    = UTC
MEAN_ELEMENT_THEORY = SGP/SGP4

EPOCH          = 2026-02-20T05:23:05.698464
MEAN_MOTION    = 15.75182294
ECCENTRICITY   = .00026606
INCLINATION    = 97.2840
RA_OF_ASC_NODE = 295.2889
ARG_OF_PERICENTER = 64.4621
MEAN_ANOMALY   = 295.6919

EPHEMERIS_TYPE = 0
CLASSIFICATION_TYPE = U
NORAD_CAT_ID   = 67551
ELEMENT_SET_NO = 999
REV_AT_EPOCH   = 581
BSTAR          = .57068512E-3
MEAN_MOTION_DOT = .85833E-3
MEAN_MOTION_DDOT = 0

CCSDS_OMM_VERS = 2.0
CREATION_DATE  = 
ORIGINATOR     = 

OBJECT_NAME    = STARLINK-36567
OBJECT_ID      = 2026-014W
CENTER_NAME    = EARTH
REF_FRAME      = TEME
TIME_SYSTEM    = UTC
MEAN_ELEMENT_THEORY = SGP/SGP4

EPOCH          = 2026-02-20T05:35:17.516832
MEAN_MOTION    = 15.75167835
ECCENTRICITY   = .00023119
INCLINATION    = 97.2843
RA_OF_ASC_NODE = 295.2738
ARG_OF_PERICENTER = 78.3497
MEAN_ANOMALY   = 281.8028

EPHEMERIS_TYPE = 0
CLASSIFICATION_TYPE = U
NORAD_CAT_ID   = 67552
ELEMENT_SET_NO = 999
REV_AT_EPOCH   = 581
BSTAR          = .16165048E-2
MEAN_MOTION_DOT = .247883E-2
MEAN_MOTION_DDOT = 0

CCSDS_OMM_VERS = 2.0
CREATION_DATE  = 
ORIGINATOR     = 

OBJECT_NAME    = STARLINK-36569
OBJECT_ID      = 2026-014X
CENTER_NAME    = EARTH
REF_FRAME      = TEME
TIME_SYSTEM    = UTC
MEAN_ELEMENT_THEORY = SGP/SGP4

EPOCH          = 2026-02-20T04:57:40.938048
MEAN_MOTION    = 15.75199641
ECCENTRICITY   = .00022044
INCLINATION    = 97.2845
RA_OF_ASC_NODE = 295.3116
ARG_OF_PERICENTER = 96.2739
MEAN_ANOMALY   = 263.8778

EPHEMERIS_TYPE = 0
CLASSIFICATION_TYPE = U
NORAD_CAT_ID   = 67553
ELEMENT_SET_NO = 999
REV_AT_EPOCH   = 581
BSTAR          = .56647741E-3
MEAN_MOTION_DOT = .85253E-3
MEAN_MOTION_DDOT = 0

CCSDS_OMM_VERS = 2.0
CREATION_DATE  = 
ORIGINATOR     = 

OBJECT_NAME    = STARLINK-36395
OBJECT_ID      = 2026-014Y
CENTER_NAME    = EARTH
REF_FRAME      = TEME
TIME_SYSTEM    = UTC
MEAN_ELEMENT_THEORY = SGP/SGP4

EPOCH          = 2026-02-20T05:27:09.998784
MEAN_MOTION    = 15.75148080
ECCENTRICITY   = .000345
INCLINATION    = 97.2851
RA_OF_ASC_NODE = 295.2816
ARG_OF_PERICENTER = 60.1137
MEAN_ANOMALY   = 300.0470

EPHEMERIS_TYPE = 0
CLASSIFICATION_TYPE = U
NORAD_CAT_ID   = 67554
ELEMENT_SET_NO = 999
REV_AT_EPOCH   = 581
BSTAR          = .87565329E-3
MEAN_MOTION_DOT = .132311E-2
MEAN_MOTION_DDOT = 0

CCSDS_OMM_VERS = 2.0
CREATION_DATE  = 
ORIGINATOR     = 

OBJECT_NAME    = STARLINK-36559
OBJECT_ID      = 2026-014Z
CENTER_NAME    = EARTH
REF_FRAME      = TEME
TIME_SYSTEM    = UTC
MEAN_ELEMENT_THEORY = SGP/SGP4

EPOCH          = 2026-02-20T05:29:11.764032
MEAN_MOTION    = 15.75183890
ECCENTRICITY   = .00032936
INCLINATION    = 97.2844
RA_OF_ASC_NODE = 295.2814
ARG_OF_PERICENTER = 61.7894
MEAN_ANOMALY   = 298.3703

EPHEMERIS_TYPE = 0
CLASSIFICATION_TYPE = U
NORAD_CAT_ID   = 67555
ELEMENT_SET_NO = 999
REV_AT_EPOCH   = 581
BSTAR          = .5875318E-3
MEAN_MOTION_DOT = .88413E-3
MEAN_MOTION_DDOT = 0

CCSDS_OMM_VERS = 2.0
CREATION_DATE  = 
ORIGINATOR     = 

OBJECT_NAME    = MR-2
OBJECT_ID      = 2026-015A
CENTER_NAME    = EARTH
REF_FRAME      = TEME
TIME_SYSTEM    = UTC
MEAN_ELEMENT_THEORY = SGP/SGP4

EPOCH          = 2026-02-20T02:34:56.327232
MEAN_MOTION    = 13.52686797
ECCENTRICITY   = .00049834
INCLINATION    = 88.9961
RA_OF_ASC_NODE = 280.4507
ARG_OF_PERICENTER = 69.9343
MEAN_ANOMALY   = 290.2345

EPHEMERIS_TYPE = 0
CLASSIFICATION_TYPE = U
NORAD_CAT_ID   = 67556
ELEMENT_SET_NO = 999
REV_AT_EPOCH   = 388
BSTAR          = .75401546E-4
MEAN_MOTION_DOT = .62E-6
MEAN_MOTION_DDOT = 0

CCSDS_OMM_VERS = 2.0
CREATION_DATE  = 
ORIGINATOR     = 

OBJECT_NAME    = MR-1
OBJECT_ID      = 2026-015B
CENTER_NAME    = EARTH
REF_FRAME      = TEME
TIME_SYSTEM    = UTC
MEAN_ELEMENT_THEORY = SGP/SGP4

EPOCH          = 2026-02-20T02:35:41.509248
MEAN_MOTION    = 13.52661986
ECCENTRICITY   = .00050409
INCLINATION    = 88.9959
RA_OF_ASC_NODE = 280.4508
ARG_OF_PERICENTER = 68.8191
MEAN_ANOMALY   = 291.3500

EPHEMERIS_TYPE = 0
CLASSIFICATION_TYPE = U
NORAD_CAT_ID   = 67557
ELEMENT_SET_NO = 999
REV_AT_EPOCH   = 388
BSTAR          = .85571899E-4
MEAN_MOTION_DOT = .69E-6
MEAN_MOTION_DDOT = 0

CCSDS_OMM_VERS = 2.0
CREATION_DATE  = 
ORIGINATOR     = 

OBJECT_NAME    = ELECTRON R/B
OBJECT_ID      = 2026-015C
CENTER_NAME    = EARTH
REF_FRAME      = TEME
TIME_SYSTEM    = UTC
MEAN_ELEMENT_THEORY = SGP/SGP4

EPOCH          = 2026-02-20T09:36:41.287104
MEAN_MOTION    = 16.00883137
ECCENTRICITY   = .018506
INCLINATION    = 88.9507
RA_OF_ASC_NODE = 279.4561
ARG_OF_PERICENTER = 160.1010
MEAN_ANOMALY   = 200.7627

EPHEMERIS_TYPE = 0
CLASSIFICATION_TYPE = U
NORAD_CAT_ID   = 67558
ELEMENT_SET_NO = 999
REV_AT_EPOCH   = 440
BSTAR          = .9119E-3
MEAN_MOTION_DOT = .6919973E-1
MEAN_MOTION_DDOT = -.16378E-5

CCSDS_OMM_VERS = 2.0
CREATION_DATE  = 
ORIGINATOR     = 

OBJECT_NAME    = ELECTRON KICK STAGE R/B
OBJECT_ID      = 2026-015D
CENTER_NAME    = EARTH
REF_FRAME      = TEME
TIME_SYSTEM    = UTC
MEAN_ELEMENT_THEORY = SGP/SGP4

EPOCH          = 2026-02-20T04:47:34.050624
MEAN_MOTION    = 14.68722637
ECCENTRICITY   = .05267342
INCLINATION    = 89.0489
RA_OF_ASC_NODE = 279.9799
ARG_OF_PERICENTER = 234.3293
MEAN_ANOMALY   = 120.7811

EPHEMERIS_TYPE = 0
CLASSIFICATION_TYPE = U
NORAD_CAT_ID   = 67559
ELEMENT_SET_NO = 999
REV_AT_EPOCH   = 422
BSTAR          = .70663706E-3
MEAN_MOTION_DOT = .42304E-3
MEAN_MOTION_DDOT = -.215695E-6

CCSDS_OMM_VERS = 2.0
CREATION_DATE  = 
ORIGINATOR     = 

OBJECT_NAME    = STARLINK-36426
OBJECT_ID      = 2026-014AA
CENTER_NAME    = EARTH
REF_FRAME      = TEME
TIME_SYSTEM    = UTC
MEAN_ELEMENT_THEORY = SGP/SGP4

EPOCH          = 2026-02-20T03:17:34.067040
MEAN_MOTION    = 15.75304837
ECCENTRICITY   = .0001684
INCLINATION    = 97.2827
RA_OF_ASC_NODE = 295.2552
ARG_OF_PERICENTER = 59.3824
MEAN_ANOMALY   = 300.7607

EPHEMERIS_TYPE = 0
CLASSIFICATION_TYPE = U
NORAD_CAT_ID   = 67560
ELEMENT_SET_NO = 999
REV_AT_EPOCH   = 580
BSTAR          = .17375698E-2
MEAN_MOTION_DOT = .268693E-2
MEAN_MOTION_DDOT = 0

CCSDS_OMM_VERS = 2.0
CREATION_DATE  = 
ORIGINATOR     = 

OBJECT_NAME    = STARLINK-36621
OBJECT_ID      = 2026-016A
CENTER_NAME    = EARTH
REF_FRAME      = TEME
TIME_SYSTEM    = UTC
MEAN_ELEMENT_THEORY = SGP/SGP4

EPOCH          = 2026-02-20T03:06:32.328576
MEAN_MOTION    = 15.75241098
ECCENTRICITY   = .00017621
INCLINATION    = 97.2821
RA_OF_ASC_NODE = 110.6668
ARG_OF_PERICENTER = 105.5908
MEAN_ANOMALY   = 254.5552

EPHEMERIS_TYPE = 0
CLASSIFICATION_TYPE = U
NORAD_CAT_ID   = 67561
ELEMENT_SET_NO = 999
REV_AT_EPOCH   = 403
BSTAR          = .11968351E-2
MEAN_MOTION_DOT = .182661E-2
MEAN_MOTION_DDOT = 0

